GLOBALSTAR M063 [+]     
1 26081U 00008A   23264.54564237 -.00000065  00000+0  25100-3 0  9990
2 26081  51.9986 342.9526 0004806 173.4518 289.2538 11.86144399 82266
GLOBALSTAR M062 [-]     
1 26082U 00008B   23264.72605573  .00000003  00000+0  72215-3 0  9990
2 26082  51.9841 161.4625 0006278 193.2268 184.4163 12.43415017 80190
GLOBALSTAR M060 [-]     
1 26083U 00008C   23264.67553600 -.00000205  00000+0 -11351-2 0  9997
2 26083  52.0044  31.8530 0002559 277.8967  95.8543 12.17614162 75246
GLOBALSTAR M064 [-]     
1 26084U 00008D   23264.77434100 -.00000098  00000+0 -21122-3 0  9990
2 26084  52.0019  88.6577 0000701 302.6901  57.3863 11.88509718 91773
GLOBALSTAR M065 [+]     
1 31571U 07020A   23264.76057420 -.00000094  00000+0  53197-4 0  9996
2 31571  51.9923 357.1614 0009853 347.4724 181.2993 12.61952127753612
GLOBALSTAR M069 [+]     
1 31573U 07020C   23264.58147834 -.00000059  00000+0  25125-3 0  9997
2 31573  51.9964 313.8899 0000569 153.9607  10.4720 12.62281141754409
GLOBALSTAR M072 [+]     
1 31574U 07020D   23264.72230684 -.00000100  00000+0  18657-4 0  9990
2 31574  52.0095  49.1520 0001121  86.6960  16.8714 12.62265741752854
GLOBALSTAR M071 [P]     
1 31576U 07020F   23264.35200076 -.00000062  00000+0  23372-3 0  9999
2 31576  52.0085 319.5439 0001058 154.6854 285.4847 12.62268456415566
